FLOCK 2K-01             
1 42852U 17042AD  19034.15754422  .00002908  00000-0  79209-4 0  9992
2 42852  96.9578 283.8644 0010176   8.5969 351.5450 15.38197055 87129
FLOCK 2K-02             
1 42853U 17042AE  19034.19928319  .00005728  00000-0  16497-3 0  9997
2 42853  96.9588 282.4655 0011251  10.7533 349.3951 15.36050066 87023
FLOCK 2K-47             
1 42854U 17042AF  19033.63298178  .00002551  00000-0  69753-4 0  9994
2 42854  96.9579 283.3801 0010147   8.9092 351.2332 15.38189628 87045
FLOCK 2K-48             
1 42855U 17042AG  19034.21651506  .00002937  00000-0  79966-4 0  9993
2 42855  96.9581 283.9556 0010019   7.3988 352.7404 15.38208896 87132
FLOCK 2K-45             
1 42856U 17042AH  19034.21453147  .00003032  00000-0  82527-4 0  9999
2 42856  96.9579 283.9400 0009962   6.3231 353.8139 15.38194335 87132
FLOCK 2K-24             
1 42857U 17042AJ  19033.62830300  .00006112  00000-0  16263-3 0  9999
2 42857  96.9578 283.2522 0010002   6.2148 353.9220 15.38504788 87031
FLOCK 2K-46             
1 42858U 17042AK  19034.20343858  .00005758  00000-0  15363-3 0  9997
2 42858  96.9583 283.9964 0010077   5.0511 355.0835 15.38444884 87134
FLOCK 2K-23             
1 42859U 17042AL  19034.20844119  .00003074  00000-0  83615-4 0  9999
2 42859  96.9584 283.9802 0010278   6.2654 353.8718 15.38196515 87132
FLOCK 2K-21             
1 42860U 17042AM  19034.21229988  .00006338  00000-0  17025-3 0  9990
2 42860  96.9584 283.9684 0010173   6.7243 353.4138 15.38197140 87132
FLOCK 2K-22             
1 42861U 17042AN  19033.67590358  .00006545  00000-0  16974-3 0  9994
2 42861  96.9591 283.6784 0010012   6.1747 353.9622 15.39271051 87064
FLOCK 2K-07             
1 42862U 17042AP  19033.69016458  .00002417  00000-0  66189-4 0  9999
2 42862  96.9588 283.5040 0010420   8.0020 352.1390 15.38185908 87060
FLOCK 2K-08             
1 42863U 17042AQ  19034.20678399  .00002856  00000-0  77884-4 0  9997
2 42863  96.9582 283.9701 0010428   7.3475 352.7922 15.38177693 87134
FLOCK 2K-05             
1 42864U 17042AR  19034.21921485  .00007302  00000-0  19107-3 0  9990
2 42864  96.9585 284.1277 0010082   6.7742 353.3639 15.38956416 87146
FLOCK 2K-40             
1 42865U 17042AS  19033.87919707  .00002958  00000-0  80531-4 0  9998
2 42865  96.9589 283.6978 0010467   8.1858 351.9557 15.38195905 87088
FLOCK 2K-39             
1 42866U 17042AT  19033.87715579  .00003097  00000-0  84227-4 0  9991
2 42866  96.9586 283.6781 0010455   7.3380 352.8017 15.38197504 87084
FLOCK 2K-37             
1 42867U 17042AU  19033.67999821  .00002363  00000-0  64770-4 0  9990
2 42867  96.9586 283.5040 0010600   8.1948 351.9469 15.38185390 87051
FLOCK 2K-38             
1 42868U 17042AV  19033.93611230  .00002944  00000-0  80161-4 0  9992
2 42868  96.9585 283.7497 0010473   5.6851 354.4512 15.38197357 87099
FLOCK 2K-31             
1 42869U 17042AW  19034.19436941  .00002890  00000-0  78746-4 0  9992
2 42869  96.9583 283.9855 0010417   2.6458 357.4841 15.38195331 87139
FLOCK 2K-32             
1 42870U 17042AX  19033.67182346  .00002570  00000-0  70236-4 0  9994
2 42870  96.9582 283.4869 0010424   5.2312 354.9041 15.38193813 87054
FLOCK 2K-29             
1 42871U 17042AY  19033.99524913  .00002872  00000-0  78240-4 0  9998
2 42871  96.9584 283.8169 0010494   3.3462 356.7852 15.38204907 87109
FLOCK 2K-30             
1 42872U 17042AZ  19033.66784301  .00005012  00000-0  13503-3 0  9991
2 42872  96.9586 283.5094 0010537   5.2076 354.9278 15.38200497 87041
FLOCK 2K-44             
1 42873U 17042BA  19033.92621106  .00003077  00000-0  83651-4 0  9995
2 42873  96.9581 283.7506 0010939 353.0073   7.1019 15.38210317 87091
FLOCK 2K-43             
1 42874U 17042BB  19033.65109899  .00001685  00000-0  51079-4 0  9998
2 42874  96.9576 282.1081 0012727   2.2889 357.8411 15.35371200 86953
FLOCK 2K-41             
1 42875U 17042BC  19033.64953351  .00006534  00000-0  17521-3 0  9999
2 42875  96.9589 283.5409 0011423 355.9430   4.1721 15.38228230 87054
FLOCK 2K-36             
1 42876U 17042BD  19033.65633035  .00006092  00000-0  16184-3 0  9998
2 42876  96.9586 283.4076 0011523 357.2128   2.9052 15.38538220 87046
FLOCK 2K-35             
1 42877U 17042BE  19033.92405686  .00002998  00000-0  81544-4 0  9992
2 42877  96.9587 283.7775 0011312 354.3047   5.8068 15.38204563 87095
FLOCK 2K-34             
1 42878U 17042BF  19033.66176184  .00002635  00000-0  71938-4 0  9996
2 42878  96.9584 283.5185 0011471 356.8719   3.2453 15.38197641 87059
FLOCK 2K-33             
1 42879U 17042BG  19033.90521460  .00009012  00000-0  22860-3 0  9990
2 42879  96.9585 284.0789 0011010 354.7422   5.3707 15.39832277 87118
FLOCK 2K-28             
1 42880U 17042BH  19033.65252825  .00001686  00000-0  51145-4 0  9998
2 42880  96.9583 282.1317 0012507   0.6202 359.5056 15.35339551 86954
LEMUR-2-ARTFISCHER      
1 42881U 17042BJ  19033.88078154  .00005766  00000-0  15736-3 0  9993
2 42881  96.9591 283.4044 0012188 359.6209   0.5025 15.37722007 87048
FLOCK 2K-27             
1 42882U 17042BK  19033.90325634  .00007253  00000-0  19213-3 0  9992
2 42882  96.9587 283.6717 0011626 356.7968   3.3202 15.38561788 87089
FLOCK 2K-26             
1 42883U 17042BL  19033.68378096  .00003011  00000-0  80813-4 0  9991
2 42883  96.9582 283.6298 0011600 355.0682   5.0448 15.38613330 87066
FLOCK 2K-25             
1 42884U 17042BM  19033.65979038  .00002809  00000-0  76497-4 0  9999
2 42884  96.9585 283.5166 0011454 355.6862   4.4283 15.38222513 87054
FLOCK 2K-20             
1 42885U 17042BN  19033.65434314  .00004067  00000-0  10960-3 0  9993
2 42885  96.9587 283.5449 0011783 354.8641   5.2483 15.38292417 87053
FLOCK 2K-19             
1 42886U 17042BP  19033.65776591  .00005285  00000-0  14211-3 0  9996
2 42886  96.9588 283.5465 0011840 355.6802   4.4340 15.38220515 87058
FLOCK 2K-18             
1 42887U 17042BQ  19033.64579248  .00002423  00000-0  66328-4 0  9994
2 42887  96.9587 283.5505 0011955 354.6539   5.4578 15.38184376 87054
FLOCK 2K-17             
1 42888U 17042BR  19033.90340819  .00007180  00000-0  19057-3 0  9995
2 42888  96.9578 283.7541 0011540 352.7529   7.3548 15.38509479 87092
FLOCK 2K-16             
1 42889U 17042BS  19033.65393605  .00002516  00000-0  68778-4 0  9992
2 42889  96.9588 283.5446 0011426 354.0116   6.0992 15.38197657 87052
FLOCK 2K-15             
1 42890U 17042BT  19033.70893320  .00002454  00000-0  67157-4 0  9990
2 42890  96.9594 283.6634 0011782 353.8005   6.3093 15.38185493 87061
FLOCK 2K-13             
1 42891U 17042BU  19033.88916516  .00007911  00000-0  20795-3 0  9992
2 42891  96.9600 283.7037 0011532 349.8594  10.2418 15.38775607 87088
FLOCK 2K-14             
1 42892U 17042BV  19033.90665045  .00007189  00000-0  19204-3 0  9994
2 42892  96.9582 283.7649 0011688 352.2212   7.8851 15.38307374 87090
FLOCK 2K-12             
1 42893U 17042BW  19034.22516748  .00003016  00000-0  82058-4 0  9999
2 42893  96.9590 284.1378 0011810 352.3293   7.7771 15.38188824 87144
FLOCK 2K-11             
1 42894U 17042BX  19033.65161471  .00005418  00000-0  14570-3 0  9996
2 42894  96.9587 283.5489 0011532 350.4936   9.6090 15.38215278 87050
FLOCK 2K-10             
1 42895U 17042BY  19033.90173090  .00003026  00000-0  82293-4 0  9996
2 42895  96.9583 283.7812 0011797 351.7389   8.3661 15.38203688 87094
FLOCK 2K-09             
1 42896U 17042BZ  19033.98405963  .00004627  00000-0  12102-3 0  9991
2 42896  96.9576 284.1283 0011212 350.9817   9.1226 15.39148170 87296
FLOCK 2K-06             
1 42897U 17042CA  19033.87321099  .00003087  00000-0  83962-4 0  9999
2 42897  96.9585 283.6891 0010610   6.0335 354.1037 15.38192069 87086
VENUS                   
1 42901U 17044B   19034.22559959  .00000066  00000-0  27982-4 0  9999
2 42901  98.2944 112.4638 0001731  12.8851 347.2426 14.50864504 79760
SILU-1 (SILKROAD 1)     
1 42903U 17021F   19034.17080567  .00113162  12819-4  36279-3 0  9999
2 42903  42.7724 353.8418 0015748 159.0794 324.7423 15.90280677 86440
COSMOS 2520             
1 42907U 17046A   19033.49839141  .00000128  00000-0  00000-0 0  9996
2 42907   0.0366 134.3460 0001790 300.1421 282.2980  1.00274155  5391
TNS 0-2                 
1 42914U 98067ND  19033.93159819  .00036963  00000-0  26530-3 0  9997
2 42914  51.6330 271.6734 0002967  22.1866 337.9261 15.73274728 83557
TDRS 13                 
1 42915U 17047A   19033.58470836 -.00000102  00000-0  00000+0 0  9990
2 42915   6.3176 330.7597 0012369  66.1083 294.1733  1.00276969  5391
QZS-3 (MICHIBIKI-3)     
1 42917U 17048A   19033.27986171 -.00000357  00000-0  00000-0 0  9996
2 42917   0.0595 227.5780 0001384 113.4013  18.9841  1.00271283  5273
COSMOS 2521             
1 42919U 17037D   19033.93508416  .00064702  40046-5  23072-3 0  9990
2 42919  97.8845 146.8691 0002842  35.8720 100.8221 15.89057365 80836
FORMOSAT-5              
1 42920U 17049A   19034.16388158 -.00000057  00000-0 -32156-5 0  9991
2 42920  98.3411 113.7213 0011756  65.6884 294.5544 14.50827167 76478
AMAZONAS 5              
1 42934U 17053A   19033.80078029 -.00000291  00000-0  00000+0 0  9990
2 42934   0.0405 317.5977 0004519  12.6183  29.7268  1.00269108  5143
COSMOS 2522 [GLONASS-M] 
1 42939U 17055A   19033.83778365  .00000020  00000-0  00000-0 0  9990
2 42939  64.5615 284.3844 0006815 258.0649  37.2201  2.13101986 10628
ASIASAT 9               
1 42942U 17057A   19033.91368836 -.00000368  00000-0  00000+0 0  9998
2 42942   0.0054  89.7380 0002078 220.9919 273.0697  1.00271179  4956
YAOGAN-30 A             
1 42945U 17058A   19034.12483672  .00000146  00000-0  17738-4 0  9996
2 42945  35.0018 351.1535 0004012 330.4679  29.5797 14.89599069 73408
YAOGAN-30 B             
1 42946U 17058B   19034.14797579  .00000145  00000-0  17692-4 0  9991
2 42946  35.0008 351.3336 0001750 165.0699 195.0061 14.89596528 73409
